OTTER                   
1 62623U 25009Q   26068.72300813  .00012198  00000+0  45151-3 0  9990
2 62623  97.4065 151.3812 0003573 310.7710  49.3219 15.27809545 63722
STARLINK-33864          
1 63636U 25083C   26068.24102747  .00035938  00000+0  13084-2 0  9996
2 63636  43.0055   8.1442 0002393 264.3777  95.6802 15.27597050 50023
