[{"OBJECT_NAME":"OTTER","OBJECT_ID":"2025-009Q","EPOCH":"2026-03-09T17:21:07.902432","MEAN_MOTION":15.27809545,"ECCENTRICITY":0.00035728,"INCLINATION":97.4065,"RA_OF_ASC_NODE":151.3812,"ARG_OF_PERICENTER":310.771,"MEAN_ANOMALY":49.3219,"EPHEMERIS_TYPE":0,"CLASSIFICATION_TYPE":"U","NORAD_CAT_ID":62623,"ELEMENT_SET_NO":999,"REV_AT_EPOCH":6372,"BSTAR":0.00045151206,"MEAN_MOTION_DOT":0.00012198,"MEAN_MOTION_DDOT":0},{"OBJECT_NAME":"STARLINK-33864","OBJECT_ID":"2025-083C","EPOCH":"2026-03-09T05:47:04.773408","MEAN_MOTION":15.2759705,"ECCENTRICITY":0.00023939,"INCLINATION":43.0055,"RA_OF_ASC_NODE":8.1442,"ARG_OF_PERICENTER":264.3777,"MEAN_ANOMALY":95.6802,"EPHEMERIS_TYPE":0,"CLASSIFICATION_TYPE":"U","NORAD_CAT_ID":63636,"ELEMENT_SET_NO":999,"REV_AT_EPOCH":5002,"BSTAR":0.001308396,"MEAN_MOTION_DOT":0.00035938,"MEAN_MOTION_DDOT":0}]
